ONEWEB-0201             
1 48241U 21031AH  22346.46984161  .00000236  00000+0  60245-3 0  9992
2 48241  87.9083 184.7945 0001516  83.2554 276.8748 13.14505050 79860
ONEWEB-0207             
1 48242U 21031AJ  22346.52059334 -.00000125  00000+0 -37238-3 0  9990
2 48242  87.9083 184.7509 0001269  77.8317 282.2955 13.14506228 79788
ONEWEB-0208             
1 48243U 21031AK  22346.49839151 -.00000120  00000+0 -35924-3 0  9995
2 48243  87.9082 184.7795 0001865  77.4730 282.6608 13.14502106 79793
ONEWEB-0200             
1 48244U 21031AL  22346.46244353  .00000156  00000+0  38752-3 0  9996
2 48244  87.9074 184.7834 0001971  81.2221 278.9132 13.14499799 79710
ONEWEB-0217             
1 48245U 21031AM  22346.47937452  .00003977  00000+0  10691-1 0  9991
2 48245  87.9084 184.7496 0002042  80.5324 279.6037 13.14485407 79669
ONEWEB-0211             
1 48767U 21045A   22346.46504558  .00000230  00000+0  57731-3 0  9998
2 48767  87.9083 154.5162 0001848  90.1008 270.0334 13.15547824 75766
ONEWEB-0223             
1 48768U 21045B   22346.48614900  .00000005  00000+0 -20643-4 0  9998
2 48768  87.9080 154.5235 0002020  94.0242 266.1119 13.15550885 75758
ONEWEB-0230             
1 48769U 21045C   22346.45869887  .00000103  00000+0  23908-3 0  9996
2 48769  87.9100 154.5433 0001596  94.1499 265.9814 13.15543242 76012
ONEWEB-0237             
1 48770U 21045D   22346.52419817  .00000046  00000+0  87182-4 0  9991
2 48770  87.9081 154.4875 0001971 102.1391 257.9960 13.15548551 75749
ONEWEB-0235             
1 48771U 21045E   22346.49672091 -.00000069  00000+0 -21805-3 0  9999
2 48771  87.9083 154.5292 0002414 110.6161 249.5228 13.15549600 75737
ONEWEB-0242             
1 48772U 21045F   22346.49038887 -.00000025  00000+0 -99139-4 0  9997
2 48772  87.9082 154.5235 0001656 103.5712 256.5603 13.15547751 75778
ONEWEB-0241             
1 48773U 21045G   22346.47772291  .00000092  00000+0  20951-3 0  9997
2 48773  87.9042 154.4875 0002118  86.7120 273.4253 13.15548439 75686
ONEWEB-0243             
1 48774U 21045H   22346.50940758 -.00000115  00000+0 -34013-3 0  9999
2 48774  87.9079 154.5012 0001966 108.7230 251.4113 13.15547729 76849
ONEWEB-0222             
1 48775U 21045J   22346.49884069 -.00000069  00000+0 -21671-3 0  9994
2 48775  87.9080 154.5381 0001949  91.2460 268.8894 13.15549428 75758
ONEWEB-0244             
1 48776U 21045K   22346.52004659 -.00002529  00000+0 -67545-2 0  9990
2 48776  87.9014 154.4576 0002820 121.6922 238.4483 13.15530002 77444
ONEWEB-0247             
1 48777U 21045L   22346.51574808  .00000128  00000+0  30474-3 0  9991
2 48777  87.9049 154.4706 0002205 105.3307 254.8067 13.15548510 75767
ONEWEB-0245             
1 48778U 21045M   22346.51152017 -.00000064  00000+0 -20292-3 0  9994
2 48778  87.9079 154.5463 0001923  82.9812 277.1537 13.15549960 75736
ONEWEB-0229             
1 48779U 21045N   22346.50517561 -.00000038  00000+0 -13600-3 0  9999
2 48779  87.9080 154.5338 0001982  94.4058 265.7298 13.15546610 76899
ONEWEB-0228             
1 48780U 21045P   22346.51989241 -.00000054  00000+0 -17673-3 0  9992
2 48780  87.9078 154.5175 0001569  98.0132 262.1176 13.15550167 76811
ONEWEB-0232             
1 48781U 21045Q   22346.51361124 -.00000740  00000+0 -20002-2 0  9998
2 48781  87.9106 154.5402 0001714  85.0580 275.0746 13.15546016 76007
ONEWEB-0231             
1 48782U 21045R   22346.49249134 -.00000040  00000+0 -13969-3 0  9990
2 48782  87.9080 154.4627 0001911 100.1152 260.0194 13.15547344 76837
ONEWEB-0234             
1 48783U 21045S   22346.51784485 -.00000033  00000+0 -12197-3 0  9991
2 48783  87.9079 154.5191 0001691  76.3696 283.7622 13.15549489 75834
ONEWEB-0238             
1 48784U 21045T   22346.52947038  .00000104  00000+0  24230-3 0  9996
2 48784  87.9080 154.5270 0001592  78.6798 281.4511 13.15550661 76863
ONEWEB-0240             
1 48785U 21045U   22346.47559183  .00000076  00000+0  16761-3 0  9999
2 48785  87.9082 154.5123 0002172  88.0780 272.0599 13.15545872 75751
ONEWEB-0246             
1 48786U 21045V   22346.47135731  .00000133  00000+0  31869-3 0  9999
2 48786  87.9083 154.5110 0001897 101.2512 258.8831 13.15550637 75625
ONEWEB-0210             
1 48787U 21045W   22346.52206665 -.00000009  00000+0 -56795-4 0  9991
2 48787  87.9079 154.5126 0001963 119.5348 240.5978 13.15549134 75676
ONEWEB-0214             
1 48788U 21045X   22346.53264846  .00000124  00000+0  29418-3 0  9995
2 48788  87.9081 154.4999 0001786 125.3459 234.7838 13.15547262 75645
ONEWEB-0221             
1 48789U 21045Y   22346.46291811  .00000158  00000+0  38545-3 0  9998
2 48789  87.9042 154.5293 0001798  92.6423 267.4913 13.15545949 75727
ONEWEB-0213             
1 48790U 21045Z   22346.52631163  .00000070  00000+0  15240-3 0  9995
2 48790  87.9081 154.5263 0001919 102.8461 257.2883 13.15548669 75792
ONEWEB-0212             
1 48791U 21045AA  22346.50728785 -.00000161  00000+0 -46265-3 0  9995
2 48791  87.9000 154.5539 0001349  83.9955 276.1329 13.15547318 75788
ONEWEB-0227             
1 48792U 21045AB  22346.50093436 -.00000356  00000+0 -98088-3 0  9990
2 48792  87.8998 154.5681 0001808  92.1888 267.9450 13.15547531 75734
ONEWEB-0226             
1 48793U 21045AC  22346.49461515 -.00000046  00000+0 -15629-3 0  9992
2 48793  87.9083 154.5353 0002049 113.3984 246.7362 13.15550665 75704
ONEWEB-0224             
1 48794U 21045AD  22346.46081151  .00000164  00000+0  40034-3 0  9991
2 48794  87.9037 154.4950 0001622  74.1044 286.0265 13.15548886 75625
ONEWEB-0233             
1 48795U 21045AE  22346.53065285  .00000107  00000+0  25079-3 0  9999
2 48795  87.9106 154.5594 0001904  85.4436 274.6911 13.15553003 75641
ONEWEB-0190             
1 48796U 21045AF  22346.52842083  .00000099  00000+0  22827-3 0  9996
2 48796  87.9077 154.5377 0002689 107.5624 252.5800 13.15548203 75721
ONEWEB-0236             
1 48797U 21045AG  22346.46926541  .00000140  00000+0  33705-3 0  9996
2 48797  87.9082 154.5163 0001593  92.3813 267.7500 13.15546554 75604
ONEWEB-0248             
1 48798U 21045AH  22346.48194379  .00000046  00000+0  89315-4 0  9999
2 48798  87.9083 154.5261 0002522  87.6682 272.4737 13.15550170 75760
ONEWEB-0225             
1 48799U 21045AJ  22346.50304815 -.00000304  00000+0 -84142-3 0  9992
2 48799  87.9075 154.5472 0002342  97.6225 262.5171 13.15547687 75772
ONEWEB-0215             
1 48800U 21045AK  22346.47349414  .00000139  00000+0  33408-3 0  9998
2 48800  87.9080 154.5186 0002667  95.9313 264.2121 13.15548241 75649
ONEWEB-0216             
1 48801U 21045AL  22346.48404081  .00000043  00000+0  79756-4 0  9993
2 48801  87.9082 154.5513 0001458 106.9646 253.1645 13.15549676 75657
ONEWEB-0239             
1 48802U 21045AM  22346.48827450 -.00000030  00000+0 -11268-3 0  9994
2 48802  87.8989 154.5492 0002644  93.1772 266.9661 13.15548337 75691
ONEWEB-0249             
1 48967U 21060A   22346.45142789  .00000056  00000+0  11331-3 0  9992
2 48967  87.9048 124.2090 0001416  98.0928 262.0364 13.16594601 70824
ONEWEB-0250             
1 48968U 21060B   22346.45563552  .00000117  00000+0  27238-3 0  9999
2 48968  87.9048 124.2134 0001946  95.6285 264.5068 13.16591597 70808
ONEWEB-0252             
1 48970U 21060D   22346.40709698  .00000049  00000+0  94019-4 0  9996
2 48970  87.9056 124.2093 0001655 105.1168 255.0146 13.16595203 70864
ONEWEB-0253             
1 48971U 21060E   22346.47252214  .00000035  00000+0  58769-4 0  9998
2 48971  87.9035 124.1987 0001960 105.1127 255.0221 13.16597516 70804
ONEWEB-0254             
1 48972U 21060F   22346.40500078  .00000123  00000+0  28884-3 0  9998
2 48972  87.9058 124.1973 0001933 103.8561 256.2785 13.16598931 70790
ONEWEB-0255             
1 48973U 21060G   22346.44297480  .00000056  00000+0  11299-3 0  9990
2 48973  87.9045 124.2579 0001581  96.2595 263.8716 13.16599300 70879
ONEWEB-0256             
1 48974U 21060H   22346.46831366  .00000055  00000+0  11108-3 0  9998
2 48974  87.9033 124.1918 0001249 113.8884 246.2377 13.16595365 70843
ONEWEB-0257             
1 48975U 21060J   22346.42609740  .00000001  00000+0 -29774-4 0  9995
2 48975  87.9042 124.2491 0001609 109.3745 250.7560 13.16595137 70792
ONEWEB-0258             
1 48976U 21060K   22346.42820199 -.00000022  00000+0 -90462-4 0  9995
2 48976  87.9050 124.2581 0001654  97.2334 262.8985 13.16593389 70805
ONEWEB-0259             
1 48977U 21060L   22346.42185612 -.00000005  00000+0 -46549-4 0  9998
2 48977  87.9051 124.2387 0001932  94.9572 265.1779 13.16595749 70830
ONEWEB-0260             
1 48978U 21060M   22346.41552918  .00000030  00000+0  44056-4 0  9992
2 48978  87.9038 124.2204 0001583 135.7958 224.3300 13.16596736 70810
ONEWEB-0261             
1 48979U 21060N   22346.45776809  .00000102  00000+0  23291-3 0  9991
2 48979  87.9042 124.2242 0001738 109.5813 250.5506 13.16596765 70876
ONEWEB-0262             
1 48980U 21060P   22346.43874821 -.00000001  00000+0 -36597-4 0  9998
2 48980  87.9059 124.2025 0002218  93.8395 266.2989 13.16595022 70839
ONEWEB-0263             
1 48981U 21060Q   22346.39441348  .00000126  00000+0  29567-3 0  9992
2 48981  87.9066 124.2153 0002186 102.4562 257.6814 13.16592719 70793
ONEWEB-0264             
1 48982U 21060R   22346.43139076  .00000500  00000+0  12753-2 0  9994
2 48982  87.9072 124.1812 0001531  98.7599 261.3705 13.16594531 70809
ONEWEB-0266             
1 48984U 21060T   22346.45351658  .00000080  00000+0  17451-3 0  9994
2 48984  87.9057 124.2091 0001450  90.3937 269.7360 13.16595820 70797
ONEWEB-0267             
1 48985U 21060U   22346.38808951  .00000110  00000+0  25313-3 0  9990
2 48985  87.9060 124.2202 0001924 113.7218 246.4115 13.16595909 70792
ONEWEB-0268             
1 48986U 21060V   22346.43238492  .00003190  00000+0  83053-2 0  9999
2 48986  87.9054 124.2157 0001493  94.6284 265.5017 13.16625158 71060
